start=new Date('2021-10-01T00:00:00.000Z').valueOf();
sats=[{"FILE":"3136969","LAUNCH_DATE":"2021-04-29","REV_AT_EPOCH":"2394","MEAN_ELEMENT_THEORY":"SGP4","EPHEMERIS_TYPE":"0","REF_FRAME":"TEME","MEAN_ANOMALY":"281.5539","CENTER_NAME":"EARTH","TLE_LINE1":"1 48289U 21036P   21273.38971046  .00002423  00000-0  18148-3 0  9992","DECAY_DATE":null,"INCLINATION":"53.0542","MEAN_MOTION_DOT":"0.00002423","BSTAR":"0.00018148000000","COUNTRY_CODE":"US","ECCENTRICITY":"0.00021540","OBJECT_ID":"2021-036P","NORAD_CAT_ID":"48289","MEAN_MOTION":"15.06408658","PERIAPSIS":"545.695","OBJECT_TYPE":"PAYLOAD","ELEMENT_SET_NO":"999","MEAN_MOTION_DDOT":"0.0000000000000","OBJECT_NAME":"STARLINK-2545","TLE_LINE2":"2 48289  53.0542 159.9086 0002154  78.5692 281.5539 15.06408658 23943","SITE":"AFETR","CLASSIFICATION_TYPE":"U","GP_ID":"185861562","RA_OF_ASC_NODE":"159.9086","TIME_SYSTEM":"UTC","RCS_SIZE":"LARGE","ARG_OF_PERICENTER":"78.5692","SEMIMAJOR_AXIS":"6925.322","APOAPSIS":"548.679","EPOCH":"2021-09-30T09:21:10.983744","PERIOD":"95.592"},{"GP_ID":"185860810","CLASSIFICATION_TYPE":"U","RA_OF_ASC_NODE":"159.9437","TIME_SYSTEM":"UTC","RCS_SIZE":"LARGE","SEMIMAJOR_AXIS":"6925.371","ARG_OF_PERICENTER":"75.6045","EPOCH":"2021-09-30T09:15:53.612352","APOAPSIS":"548.559","PERIOD":"95.593","LAUNCH_DATE":"2021-04-29","FILE":"3136969","REV_AT_EPOCH":"2394","MEAN_ELEMENT_THEORY":"SGP4","EPHEMERIS_TYPE":"0","MEAN_ANOMALY":"284.5156","REF_FRAME":"TEME","TLE_LINE1":"1 48290U 21036Q   21273.38603718  .00000406  00000-0  46175-4 0  9993","CENTER_NAME":"EARTH","DECAY_DATE":null,"INCLINATION":"53.0546","MEAN_MOTION_DOT":"0.00000406","BSTAR":"0.00004617500000","COUNTRY_CODE":"US","ECCENTRICITY":"0.00019100","OBJECT_ID":"2021-036Q","NORAD_CAT_ID":"48290","MEAN_MOTION":"15.06392656","PERIAPSIS":"545.913","MEAN_MOTION_DDOT":"0.0000000000000","ELEMENT_SET_NO":"999","OBJECT_TYPE":"PAYLOAD","TLE_LINE2":"2 48290  53.0546 159.9437 0001910  75.6045 284.5156 15.06392656 23946","SITE":"AFETR","OBJECT_NAME":"STARLINK-2540"},{"CLASSIFICATION_TYPE":"U","GP_ID":"185861060","SEMIMAJOR_AXIS":"6925.366","ARG_OF_PERICENTER":"77.5305","RCS_SIZE":"MEDIUM","PERIOD":"95.593","EPOCH":"2021-09-30T09:10:35.333760","APOAPSIS":"548.760","RA_OF_ASC_NODE":"159.9503","TIME_SYSTEM":"UTC","EPHEMERIS_TYPE":"0","MEAN_ELEMENT_THEORY":"SGP4","MEAN_ANOMALY":"282.5931","REF_FRAME":"TEME","REV_AT_EPOCH":"2394","LAUNCH_DATE":"2021-04-29","FILE":"3136969","PERIAPSIS":"545.703","OBJECT_ID":"2021-036R","MEAN_MOTION":"15.06394252","NORAD_CAT_ID":"48291","TLE_LINE2":"2 48291  53.0547 159.9503 0002207  77.5305 282.5931 15.06394252 23945","SITE":"AFETR","OBJECT_NAME":"STARLINK-2555","MEAN_MOTION_DDOT":"0.0000000000000","ELEMENT_SET_NO":"999","OBJECT_TYPE":"PAYLOAD","MEAN_MOTION_DOT":"0.00001168","INCLINATION":"53.0547","TLE_LINE1":"1 48291U 21036R   21273.38235340  .00001168  00000-0  97350-4 0  9993","DECAY_DATE":null,"CENTER_NAME":"EARTH","COUNTRY_CODE":"US","ECCENTRICITY":"0.00022070","BSTAR":"0.00009735000000"},{"CLASSIFICATION_TYPE":"U","GP_ID":"185861312","RCS_SIZE":"LARGE","SEMIMAJOR_AXIS":"6925.357","ARG_OF_PERICENTER":"70.9185","EPOCH":"2021-09-30T09:03:54.975168","APOAPSIS":"548.569","PERIOD":"95.592","RA_OF_ASC_NODE":"159.9666","TIME_SYSTEM":"UTC","MEAN_ELEMENT_THEORY":"SGP4","EPHEMERIS_TYPE":"0","REF_FRAME":"TEME","MEAN_ANOMALY":"289.2014","FILE":"3136969","LAUNCH_DATE":"2021-04-29","REV_AT_EPOCH":"2394","NORAD_CAT_ID":"48292","OBJECT_ID":"2021-036S","MEAN_MOTION":"15.06397178","PERIAPSIS":"545.875","OBJECT_TYPE":"PAYLOAD","ELEMENT_SET_NO":"999","MEAN_MOTION_DDOT":"0.0000000000000","OBJECT_NAME":"STARLINK-2542","SITE":"AFETR","TLE_LINE2":"2 48292  53.0549 159.9666 0001945  70.9185 289.2014 15.06397178 23945","CENTER_NAME":"EARTH","TLE_LINE1":"1 48292U 21036S   21273.37771962  .00000965  00000-0  83704-4 0  9990","DECAY_DATE":null,"INCLINATION":"53.0549","MEAN_MOTION_DOT":"0.00000965","BSTAR":"0.00008370400000","ECCENTRICITY":"0.00019450","COUNTRY_CODE":"US"},{"SEMIMAJOR_AXIS":"6925.327","ARG_OF_PERICENTER":"73.8816","RCS_SIZE":"LARGE","PERIOD":"95.592","APOAPSIS":"548.733","EPOCH":"2021-09-30T02:37:47.162496","RA_OF_ASC_NODE":"161.1680","TIME_SYSTEM":"UTC","CLASSIFICATION_TYPE":"U","GP_ID":"185862062","PERIAPSIS":"545.651","MEAN_MOTION":"15.06407108","OBJECT_ID":"2021-036T","NORAD_CAT_ID":"48293","TLE_LINE2":"2 48293  53.0548 161.1680 0002225  73.8816 286.2418 15.06407108 23907","SITE":"AFETR","OBJECT_NAME":"STARLINK-2550","MEAN_MOTION_DDOT":"0.0000000000000","OBJECT_TYPE":"PAYLOAD","ELEMENT_SET_NO":"999","MEAN_MOTION_DOT":"0.00001645","INCLINATION":"53.0548","DECAY_DATE":null,"TLE_LINE1":"1 48293U 21036T   21273.10957364  .00001645  00000-0  12929-3 0  9990","CENTER_NAME":"EARTH","COUNTRY_CODE":"US","ECCENTRICITY":"0.00022250","BSTAR":"0.00012929000000","EPHEMERIS_TYPE":"0","MEAN_ELEMENT_THEORY":"SGP4","MEAN_ANOMALY":"286.2418","REF_FRAME":"TEME","REV_AT_EPOCH":"2390","LAUNCH_DATE":"2021-04-29","FILE":"3136969"},{"MEAN_MOTION_DDOT":"0.0000000000000","ELEMENT_SET_NO":"999","OBJECT_TYPE":"PAYLOAD","TLE_LINE2":"2 48294  53.0559 161.1942 0001494  75.6936 284.4219 15.06407560 23902","SITE":"AFETR","OBJECT_NAME":"STARLINK-2533","NORAD_CAT_ID":"48294","OBJECT_ID":"2021-036U","MEAN_MOTION":"15.06407560","PERIAPSIS":"546.156","BSTAR":"-0.00010795000000","COUNTRY_CODE":"US","ECCENTRICITY":"0.00014940","TLE_LINE1":"1 48294U 21036U   21273.10590929 -.00001889  00000-0 -10795-3 0  9992","DECAY_DATE":null,"CENTER_NAME":"EARTH","INCLINATION":"53.0559","MEAN_MOTION_DOT":"-0.00001889","MEAN_ANOMALY":"284.4219","REF_FRAME":"TEME","MEAN_ELEMENT_THEORY":"SGP4","EPHEMERIS_TYPE":"0","LAUNCH_DATE":"2021-04-29","FILE":"3136969","REV_AT_EPOCH":"2390","APOAPSIS":"548.225","EPOCH":"2021-09-30T02:32:30.562656","PERIOD":"95.592","RCS_SIZE":"LARGE","SEMIMAJOR_AXIS":"6925.325","ARG_OF_PERICENTER":"75.6936","TIME_SYSTEM":"UTC","RA_OF_ASC_NODE":"161.1942","GP_ID":"185860311","CLASSIFICATION_TYPE":"U"},{"CLASSIFICATION_TYPE":"U","GP_ID":"185860561","ARG_OF_PERICENTER":"72.6384","SEMIMAJOR_AXIS":"6925.349","RCS_SIZE":"LARGE","PERIOD":"95.592","APOAPSIS":"548.588","EPOCH":"2021-09-30T02:27:10.956960","RA_OF_ASC_NODE":"161.2120","TIME_SYSTEM":"UTC","EPHEMERIS_TYPE":"0","MEAN_ELEMENT_THEORY":"SGP4","REF_FRAME":"TEME","MEAN_ANOMALY":"287.4822","REV_AT_EPOCH":"2390","FILE":"3136969","LAUNCH_DATE":"2021-04-29","PERIAPSIS":"545.840","OBJECT_ID":"2021-036V","NORAD_CAT_ID":"48295","MEAN_MOTION":"15.06399908","OBJECT_NAME":"STARLINK-2535","SITE":"AFETR","TLE_LINE2":"2 48295  53.0571 161.2120 0001984  72.6384 287.4822 15.06399908 23903","OBJECT_TYPE":"PAYLOAD","ELEMENT_SET_NO":"999","MEAN_MOTION_DDOT":"0.0000000000000","INCLINATION":"53.0571","MEAN_MOTION_DOT":"0.00000199","CENTER_NAME":"EARTH","TLE_LINE1":"1 48295U 21036V   21273.10221015  .00000199  00000-0  32281-4 0  9996","DECAY_DATE":null,"COUNTRY_CODE":"US","ECCENTRICITY":"0.00019840","BSTAR":"0.00003228100000"},{"PERIOD":"95.592","APOAPSIS":"548.482","EPOCH":"2021-09-30T02:21:52.229088","SEMIMAJOR_AXIS":"6925.339","ARG_OF_PERICENTER":"77.9761","RCS_SIZE":"LARGE","TIME_SYSTEM":"UTC","RA_OF_ASC_NODE":"161.2269","CLASSIFICATION_TYPE":"U","GP_ID":"185861812","OBJECT_NAME":"STARLINK-2546","SITE":"AFETR","TLE_LINE2":"2 48296  53.0560 161.2269 0001846  77.9761 282.1434 15.06403160 23907","ELEMENT_SET_NO":"999","OBJECT_TYPE":"PAYLOAD","MEAN_MOTION_DDOT":"0.0000000000000","PERIAPSIS":"545.925","OBJECT_ID":"2021-036W","NORAD_CAT_ID":"48296","MEAN_MOTION":"15.06403160","COUNTRY_CODE":"US","ECCENTRICITY":"0.00018460","BSTAR":"0.00002976000000","INCLINATION":"53.0560","MEAN_MOTION_DOT":"0.00000162","CENTER_NAME":"EARTH","TLE_LINE1":"1 48296U 21036W   21273.09852117  .00000162  00000-0  29760-4 0  9996","DECAY_DATE":null,"REF_FRAME":"TEME","MEAN_ANOMALY":"282.1434","EPHEMERIS_TYPE":"0","MEAN_ELEMENT_THEORY":"SGP4","REV_AT_EPOCH":"2390","FILE":"3136969","LAUNCH_DATE":"2021-04-29"},{"GP_ID":"185861563","CLASSIFICATION_TYPE":"U","TIME_SYSTEM":"UTC","RA_OF_ASC_NODE":"159.7551","APOAPSIS":"548.538","EPOCH":"2021-09-30T10:14:16.223424","PERIOD":"95.592","RCS_SIZE":"LARGE","ARG_OF_PERICENTER":"70.2612","SEMIMAJOR_AXIS":"6925.352","LAUNCH_DATE":"2021-04-29","FILE":"3136969","REV_AT_EPOCH":"2395","MEAN_ANOMALY":"289.8583","REF_FRAME":"TEME","MEAN_ELEMENT_THEORY":"SGP4","EPHEMERIS_TYPE":"0","BSTAR":"0.00013280000000","COUNTRY_CODE":"US","ECCENTRICITY":"0.00019080","TLE_LINE1":"1 48297U 21036X   21273.42657666  .00001697  00000-0  13280-3 0  9999","CENTER_NAME":"EARTH","DECAY_DATE":null,"INCLINATION":"53.0562","MEAN_MOTION_DOT":"0.00001697","MEAN_MOTION_DDOT":"0.0000000000000","OBJECT_TYPE":"PAYLOAD","ELEMENT_SET_NO":"999","SITE":"AFETR","TLE_LINE2":"2 48297  53.0562 159.7551 0001908  70.2612 289.8583 15.06398919 23955","OBJECT_NAME":"STARLINK-2544","NORAD_CAT_ID":"48297","MEAN_MOTION":"15.06398919","OBJECT_ID":"2021-036X","PERIAPSIS":"545.896"},{"MEAN_ANOMALY":"280.0002","REF_FRAME":"TEME","EPHEMERIS_TYPE":"0","MEAN_ELEMENT_THEORY":"SGP4","REV_AT_EPOCH":"2390","LAUNCH_DATE":"2021-04-29","FILE":"3136969","SITE":"AFETR","TLE_LINE2":"2 48298  53.0562 161.2604 0001926  80.1205 280.0002 15.06396089 23901","OBJECT_NAME":"STARLINK-2559","MEAN_MOTION_DDOT":"0.0000000000000","ELEMENT_SET_NO":"999","OBJECT_TYPE":"PAYLOAD","PERIAPSIS":"545.892","MEAN_MOTION":"15.06396089","OBJECT_ID":"2021-036Y","NORAD_CAT_ID":"48298","COUNTRY_CODE":"US","ECCENTRICITY":"0.00019260","BSTAR":"0.00025893000000","INCLINATION":"53.0562","MEAN_MOTION_DOT":"0.00003577","TLE_LINE1":"1 48298U 21036Y   21273.09118123  .00003577  00000-0  25893-3 0  9995","CENTER_NAME":"EARTH","DECAY_DATE":null,"CLASSIFICATION_TYPE":"U","GP_ID":"185860811","PERIOD":"95.592","APOAPSIS":"548.559","EPOCH":"2021-09-30T02:11:18.058272","SEMIMAJOR_AXIS":"6925.361","ARG_OF_PERICENTER":"80.1205","RCS_SIZE":"LARGE","TIME_SYSTEM":"UTC","RA_OF_ASC_NODE":"161.2604"}];
